#aV2021 11  6  0  0  0.00000000     288 DD+AD WGS84 FIT  NGA
## 2182 518400.00000000   300.00000000 59524 0.0000000000000
+   32     1  2  3  4  5  6  7  8  9 10 11 12 13 14 15 16 17
+         18 19 20 21 22 23 24 25 26 27 28 29 30 31 32  0  0
+          0  0  0  0  0  0  0  0  0  0  0  0  0  0  0  0  0
+          0  0  0  0  0  0  0  0  0  0  0  0  0  0  0  0  0
+          0  0  0  0  0  0  0  0  0  0  0  0  0  0  0  0  0
++         2  2  2  2  2  2  2  2  2  2  2  2  2  2  2  2  2
++         2  2  2  2  2  2  2  2  2  2  2  2  2  2  2  0  0
++         0  0  0  0  0  0  0  0  0  0  0  0  0  0  0  0  0
++         0  0  0  0  0  0  0  0  0  0  0  0  0  0  0  0  0
++         0  0  0  0  0  0  0  0  0  0  0  0  0  0  0  0  0
%c cc cc ccc ccc cccc cccc cccc cccc ccccc ccccc ccccc ccccc
%c cc cc ccc ccc cccc cccc cccc cccc ccccc ccccc ccccc ccccc
%f  0.0000000  0.000000000  0.00000000000  0.000000000000000
%f  0.0000000  0.000000000  0.00000000000  0.000000000000000
%i    0    0    0    0      0      0      0      0         0
%i    0    0    0    0      0      0      0      0         0
/*      NGA, ST. LOUIS,MO.                                  
/*   EPHEMERIS COMPUTED FROM 2 DAYS OF DATA                 
/*   EPOCHA v7 SMOOTHER                                     
/*   G2139 IERS2010 SATIGS SATAPC                           
*  2021 11  6  5 15  0.00000000
P  1  13064.109201 -13091.367512  18653.624557    518.674124                    
V  1     -0.188906  24356.507173  17172.584023     -0.105735                    
P  2 -13733.345844 -10870.594957 -19286.568197   -640.797174                    
V  2    511.259077 -25970.786563  13894.453074     -0.016443                    
P  3  23175.572372 -12835.387721   -945.968705     -6.764355                    
V  3   2147.070774   1784.800945  32017.465256     -0.086000                    
P  4  16716.569121  -5449.645606 -19928.084377   -202.454409                    
V  4  20243.658149  15191.687962  12754.965076      0.007626                    
P  5 -23231.174029   2901.041646 -12852.128528    -60.119953                    
V  5  12792.762887  -9862.042990 -25531.029984     -0.012797                    
P  6  -6191.839167 -23332.462323 -10946.825612    111.209028                    
V  6   2453.457126 -13884.093032  28095.318390      0.088984                    
P  7   5947.086089 -24645.834258  -6636.710635    273.903772                    
V  7   2985.777887   9198.723246 -30312.232920      0.055957                    
P  8  23179.340914   3846.899047  12680.404361    -43.000486                    
V  8  12642.049845   9984.156628 -25795.999235     -0.015858                    
P  9   5611.794301 -14530.140614 -21585.088392   -361.854379                    
V  9  23442.199923  13922.994726  -3316.670309      0.001271                    
P 10     32.670485  16260.720107  21064.389474   -239.877437                    
V 10 -23839.000022  11599.572481  -9254.254828     -0.083607                    
P 11 -12336.881642 -13210.341156 -19476.103781     20.339733                    
V 11   3705.718048 -24455.629731  14230.749029     -0.011426                    
P 12 -24340.244800  10433.553421    196.424470   -122.220308                    
V 12   -527.803307  -2602.663499  32081.186361     -0.055322                    
P 13 -22444.249928 -12155.894795   7473.491090    210.393960                    
V 13  -5875.585642  -8001.773711 -29899.855610      0.056262                    
P 14    754.509903 -16566.535336  20734.013429    -33.059775                    
V 14  24238.780055 -10405.326431  -9250.312401     -0.070724                    
P 15 -23471.375071   -997.746568  12303.667824   -108.559424                    
V 15 -13345.686688  -9657.315372 -25087.973747      0.028013                    
P 16  22138.358850   2040.841583 -15125.833105   -419.363524                    
V 16 -16606.921118   8398.941722 -23113.789166     -0.063976                    
P 17  -7369.589558 -19408.455221  16994.421098    529.697813                    
V 17  17523.894226  11105.114683  20841.971787      0.054031                    
P 18  -5591.192425  25251.788333  -5815.549607    299.857757                    
V 18  -2044.270298  -7532.930838 -30875.183548     -0.056236                    
P 19 -15107.379716 -19847.244447   9101.746117     75.538037                    
V 19  10502.308222   5852.758422  29177.980707      0.050047                    
P 20 -16792.984524  -5567.611100 -19755.200311    518.270407                    
V 20  19441.054617 -16082.852339 -12268.678783     -0.001904                    
P 21  15345.484340  -3511.662545  22031.002574    150.141879                    
V 21   1440.947314  26390.638437   3871.013848      0.011770                    
P 22  23721.964848  -8888.685899   7792.383775   -471.584741                    
V 22  -6209.821649   8286.235143  29198.653005      0.091123                    
P 23 -11978.737477  18420.708794  14839.516330     36.292297                    
V 23 -17490.251275   7447.506491 -23410.361232     -0.044840                    
P 24 -14565.806359   8622.395180  20101.801908    263.816862                    
V 24  -2224.049536 -26277.828707   9939.050904      0.045815                    
P 25 -18172.879090  16938.670998  -9265.299412    236.149542                    
V 25 -11442.300712   2916.322287  28862.816645      0.059920                    
P 26  11808.212704  11011.822586 -21185.864733    152.489827                    
V 26 -22882.428529  13952.900631  -5224.234281      0.038654                    
P 27  23543.390792  12216.886415   3395.572307   -215.659370                    
V 27   2678.442856   4149.708836 -31420.845800     -0.047631                    
P 28  -6553.913904 -13787.193320  22274.221490    468.382407                    
V 28  24893.095929 -10347.577623   1149.094802     -0.073832                    
P 29  -9963.496001  10952.521092 -22091.848113   -436.668128                    
V 29 -22311.785551 -16729.864603   1709.022644     -0.053928                    
P 30  -1045.187092 -26161.327575   3688.889760   -488.929615                    
V 30   4011.039710  -4403.373737 -30897.145450     -0.032903                    
P 31   7736.890708  21651.351677 -12979.837749   -148.721811                    
V 31  -3784.897633  16287.697836  25585.520919     -0.019170                    
P 32  12080.152291  19220.510924  14050.464109    -18.548143                    
V 32 -16015.842967  -7553.758993  24121.658943     -0.045598                    
EOF
